OBJECT_NAME,OBJECT_ID,EPOCH,MEAN_MOTION,ECCENTRICITY,INCLINATION,RA_OF_ASC_NODE,ARG_OF_PERICENTER,MEAN_ANOMALY,EPHEMERIS_TYPE,CLASSIFICATION_TYPE,NORAD_CAT_ID,ELEMENT_SET_NO,REV_AT_EPOCH,BSTAR,MEAN_MOTION_DOT,MEAN_MOTION_DDOT
GLOBALSTAR M072,2007-020D,2026-07-16T15:56:55.378176,11.91658857,.0001644,51.9950,21.7686,38.6433,39.8557,0,U,31574,999,87849,.11029E-3,-.76E-6,0
COSMO-SKYMED 1,2007-023A,2026-07-16T19:25:26.850720,14.97224237,.0001563,97.8847,29.9159,102.5898,257.5499,0,U,31598,999,3422,.13204E-3,.1468E-4,0
TERRASAR-X,2007-026A,2026-07-07T11:29:59.023968,15.19153986,.0001878,97.4461,195.8972,86.9540,273.1909,0,U,31698,999,5630,.14624E-4,.24E-5,0
COSMOS 2428,2007-029A,2026-07-16T15:58:24.915360,14.12935360,.0007227,70.9382,292.5844,78.2595,281.9336,0,U,31792,999,98231,.1686E-3,.266E-5,0
SAR-LUPE 2,2007-030A,2026-07-16T20:56:04.560000,15.53700269,.0004902,98.1066,306.0880,196.7750,163.3340,0,U,31797,999,6154,.28088E-3,.17871E-3,0
WORLDVIEW-1 (WV-1),2007-041A,2026-07-16T18:21:07.050816,15.24568766,.0001676,97.3908,317.0939,198.8827,161.2348,0,U,32060,999,4738,.12657E-3,.3046E-4,0
INTELSAT 11 (IS-11),2007-044B,2026-07-16T20:08:34.141056,0.99052640,.0004268,3.6408,78.3092,100.1846,53.6942,0,U,32253,999,6874,0,-.201E-5,0
WGS F1 (USA 195),2007-046A,2026-07-16T09:41:51.849312,1.00271171,.000029,0.0160,66.1444,146.1759,184.8706,0,U,32258,999,5262,0,-.278E-5,0
NAVSTAR 60 (USA 196),2007-047A,2026-07-16T15:24:56.220768,2.00553854,.0167837,54.1169,78.8515,88.0227,273.9620,0,U,32260,999,13740,0,-.36E-6,0
GLOBALSTAR M066,2007-048C,2026-07-16T13:39:55.327104,12.30389593,.0005586,51.9609,333.5655,104.4817,336.2278,0,U,32265,999,86384,.40679E-3,-.46E-6,0
COSMOS 2433 [GLONASS-M],2007-052A,2026-07-16T00:13:50.258208,2.13104076,.0003542,65.5591,314.9640,203.6409,156.3548,0,U,32275,999,14567,0,-.64E-6,0
COSMOS 2432 [GLONASS-M],2007-052B,2026-07-16T13:05:31.536096,2.13103049,.0007406,65.5746,315.0744,321.6777,33.2128,0,U,32276,999,14570,0,-.65E-6,0
YAOGAN-3,2007-055A,2026-07-16T20:39:10.154880,14.90885440,.0001586,97.8142,227.4452,77.2819,282.8576,0,U,32289,999,1029,.62057E-4,.556E-5,0
SKYNET 5B,2007-056B,2026-07-16T19:37:38.580960,1.00275449,.0003721,5.3245,73.1473,45.6808,135.3550,0,U,32294,999,6849,0,.127E-5,0
ASTRA 4A,2007-057A,2026-07-16T19:53:38.707008,1.00271883,.0002367,0.0368,288.8956,191.9168,117.0398,0,U,32299,999,5194,0,.22E-6,0
COSMO-SKYMED 2,2007-059A,2026-07-16T19:09:22.064256,14.82151219,.0001464,97.8895,20.9678,93.9717,266.1663,0,U,32376,999,639,.2497E-4,.147E-5,0
RADARSAT-2,2007-061A,2026-07-16T20:17:22.703424,14.29983392,.0001317,98.5778,204.3545,84.2019,275.9313,0,U,32382,999,97019,.17376E-4,.1E-7,0
NAVSTAR 61 (USA 199),2007-062A,2026-07-16T11:06:11.664000,2.00561660,.0036065,55.0085,272.9745,167.5913,190.6856,0,U,32384,999,13609,0,-.26E-6,0
HORIZONS-2,2007-063B,2026-07-16T19:48:52.919136,1.00273133,.0003545,2.6766,80.2603,16.6797,61.1138,0,U,32388,999,6811,0,-.265E-5,0
COSMOS 2434 [GLONASS-M],2007-065A,2026-07-15T09:30:25.207776,2.13101170,.00012762,64.3200,190.9641,327.5918,171.4568,0,U,32393,999,14437,0,.54E-6,0
COSMOS 2436 [GLONASS-M],2007-065C,2026-07-15T04:32:36.170592,2.13099957,.00173142,64.3286,191.0436,353.5207,119.0574,0,U,32395,999,14432,0,.56E-6,0
THURAYA-3,2008-001A,2026-07-16T17:41:38.628096,1.00272348,.0002178,6.0386,35.8252,77.7656,150.0758,0,U,32404,999,6778,0,-.3E-7,0
THOR 5,2008-006A,2026-07-16T19:53:38.707008,1.00271893,.0002429,0.0281,233.0018,251.3059,107.9939,0,U,32487,999,6761,0,-.2E-6,0
AMC-14,2008-011A,2026-07-16T00:00:49.699008,1.00420354,.00395939,24.0434,20.1720,8.4398,344.6203,0,U,32708,999,6845,0,-.193E-5,0
NAVSTAR 62 (USA 201),2008-012A,2026-07-16T13:13:11.425152,2.00573147,.0211689,54.5002,148.7517,248.1647,109.5360,0,U,32711,999,13434,0,.19E-6,0
DIRECTV 11,2008-013A,2026-07-16T20:10:00.297408,1.00271122,.0000145,0.0072,267.6426,337.1313,253.2033,0,U,32729,999,4589,0,-.136E-5,0
ICO G1,2008-016A,2026-07-16T12:52:50.064384,1.00272976,.0002294,5.5251,36.0244,69.4220,289.2777,0,U,32763,999,6683,0,-.184E-5,0
VINASAT-1,2008-018A,2026-07-16T19:04:27.176736,1.00269960,.0001599,0.0476,267.4052,226.0887,219.1674,0,U,32767,999,6688,0,-.339E-5,0
STAR ONE C2,2008-018B,2026-07-16T19:51:18.965376,1.00270353,.0002822,1.3142,82.1804,50.0912,35.1983,0,U,32768,999,6695,0,-.288E-5,0
CARTOSAT-2A,2008-021A,2026-07-16T21:02:46.141152,14.79275705,.0012362,97.7615,245.5699,22.0633,338.1108,0,U,32783,999,98319,-.1687E-4,-.176E-5,0
CUTE-1.7+APD II (CO-65),2008-021C,2026-07-16T21:04:18.316128,15.09710264,.0006903,97.8297,179.9231,292.7093,67.3405,0,U,32785,999,98967,.1558E-3,.2444E-4,0
CANX-2,2008-021H,2026-07-16T11:05:05.249184,15.05810340,.0008616,97.8658,177.8156,313.1738,46.8768,0,U,32790,999,98921,.98258E-4,.136E-4,0
SEEDS II (CO-66),2008-021J,2026-07-16T12:05:34.598688,15.33693982,.0003211,97.7523,196.8243,153.5241,206.6165,0,U,32791,999,99178,.32533E-3,.10519E-3,0
AMOS-3,2008-022A,2026-07-16T20:27:26.641152,1.00488840,.0003072,0.5299,85.7856,83.8463,133.4560,0,U,32794,999,8263,0,-.18E-6,0
GALAXY 18 (G-18),2008-024A,2026-07-16T14:26:53.661408,1.00270713,.0002825,0.0137,74.1550,40.3684,273.6113,0,U,32951,999,4614,0,.15E-6,0
YUBILEINY (RS30),2008-025A,2026-07-16T19:04:37.043616,12.43180449,.001865,82.5063,337.0212,245.1876,114.7265,0,U,32953,999,82337,-.51414E-3,-.62E-6,0
COSMOS 2437,2008-025B,2026-07-16T20:38:14.521056,12.42759566,.0019572,82.5046,339.0177,264.1271,264.3999,0,U,32954,999,82305,-.40601E-3,-.46E-6,0
COSMOS 2438,2008-025C,2026-07-16T19:22:04.031040,12.43369639,.0020492,82.5050,334.3903,237.9516,121.9574,0,U,32955,999,82351,-.20452E-3,-.19E-6,0
COSMOS 2439,2008-025D,2026-07-16T20:53:30.897600,12.43070845,.0020001,82.5096,339.3416,248.8845,111.0097,0,U,32956,999,82340,-.33823E-3,-.37E-6,0
FENGYUN 3A,2008-026A,2026-07-16T10:32:01.107744,14.19576612,.0009637,98.6886,137.7257,48.7192,311.4813,0,U,32958,999,93955,.31374E-4,.23E-6,0
ZHONGXING-9,2008-028A,2026-07-16T20:36:10.803168,1.00268779,.0003255,0.8427,84.9342,30.2002,220.9352,0,U,33051,999,6633,0,-.259E-5,0
FGRST (GLAST),2008-029A,2026-07-16T19:45:43.571808,15.24082163,.0007837,25.5830,358.6806,319.2745,40.7207,0,U,33053,999,21,.63774E-4,.193E-4,0
SKYNET 5C,2008-030A,2026-07-16T20:04:49.501056,1.00272296,.0004171,3.8629,76.6873,46.9685,94.4167,0,U,33055,999,6625,0,-.152E-5,0
TURKSAT 3A,2008-030B,2026-07-16T19:34:38.714304,1.00271215,.0004917,0.0393,76.0683,20.4471,173.7545,0,U,33056,999,5265,0,.136E-5,0
ECHOSTAR 11,2008-035A,2026-07-16T14:30:38.302272,1.00271050,.0002242,1.0795,83.8388,21.7465,296.6972,0,U,33207,999,5150,0,-.69E-6,0
SUPERBIRD-C2,2008-038A,2026-07-16T19:06:04.521888,1.00272242,.0006223,2.4355,80.8947,38.6106,237.6346,0,U,33274,999,10602,0,-.318E-5,0
INMARSAT 4-F3,2008-039A,2026-07-16T12:51:20.205792,1.00272077,.0002779,4.3178,31.6986,89.4960,268.0157,0,U,33278,999,4683,0,-.152E-5,0
HUANJING 1A (HJ-1A),2008-041A,2026-07-16T21:37:40.963584,14.84049207,.0020192,97.6694,182.5937,44.3722,315.9106,0,U,33320,999,96281,.35368E-4,.244E-5,0
HUANJING 1B (HJ-1B),2008-041B,2026-07-16T21:12:48.526272,14.83367315,.0038002,97.6532,185.6587,85.9350,274.6207,0,U,33321,999,96281,.44217E-4,.315E-5,0
GEOEYE 1,2008-042A,2026-07-16T19:13:15.229344,14.64650045,.0003833,98.1327,271.3779,341.2160,18.8901,0,U,33331,999,95448,.39403E-4,.162E-5,0
NIMIQ 4,2008-044A,2026-07-16T19:46:30.645120,1.00271363,.0001902,0.0130,38.4540,63.9671,46.8571,0,U,33373,999,6528,0,-.231E-5,0
GALAXY 19 (G-19),2008-045A,2026-07-16T19:42:16.051968,1.00270935,.0002393,0.0523,244.4441,241.0410,7.7292,0,U,33376,999,6520,0,-.149E-5,0
THEOS,2008-049A,2026-07-16T20:12:35.820864,14.20137112,.0001094,98.5556,254.1604,89.8877,270.2426,0,U,33396,999,92217,.4376E-4,.51E-6,0
SHIJIAN-6 03A (SJ-6 03A),2008-053A,2026-07-16T20:34:27.293376,15.17420726,.0009465,97.8389,232.2128,269.5752,90.4396,0,U,33408,999,96746,.22654E-4,.38E-5,0
SHIJIAN-6 03B (SJ-6 03B),2008-053B,2026-07-16T19:58:20.068608,15.04379078,.001775,97.8564,218.2156,304.8713,55.0844,0,U,33409,999,96720,-.55576E-5,-.143E-5,0
COSMO-SKYMED 3,2008-054A,2026-07-16T21:20:02.033952,15.07123432,.0015884,97.8244,56.9504,161.0120,199.1703,0,U,33412,999,96141,.18343E-3,.2697E-4,0
SHIYAN-3 (SY-3),2008-056A,2026-07-16T15:21:19.862208,14.30810774,.0014545,98.6059,223.8938,51.2611,308.9869,0,U,33433,999,92301,.30692E-4,.37E-6,0
CHUANGXIN 1-02 (CX-1-02),2008-056B,2026-07-16T21:23:54.125952,14.30158583,.0015341,98.6123,223.8609,55.8115,304.4519,0,U,33434,999,92286,.48603E-5,-.31E-6,0
ASTRA 1M,2008-057A,2026-07-16T19:45:38.762784,1.00270347,.0004509,0.3708,82.7881,42.1063,125.5322,0,U,33436,999,4603,0,.11E-5,0
YAOGAN-4,2008-061A,2026-07-16T13:55:41.681856,14.83252632,.0013699,97.9303,130.8748,341.0034,19.0667,0,U,33446,999,95002,.60266E-4,.439E-5,0
EUTELSAT HOTBIRD 13C,2008-065A,2026-07-16T19:55:33.556800,1.00270248,.0003432,3.0247,78.8378,38.3721,66.0193,0,U,33459,999,4764,0,-.295E-5,0
GOSAT (IBUKI),2009-002A,2026-07-16T07:41:16.556064,14.67540354,.0001139,98.0914,308.0397,88.5584,271.5751,0,U,33492,999,93573,.574E-4,.277E-5,0
STARS (KUKAI),2009-002G,2026-07-16T09:13:21.925056,14.95929759,.0009829,98.1553,145.8900,76.5948,283.6367,0,U,33498,999,94284,.15844E-3,.1712E-4,0
KKS-1 (KISEKI),2009-002H,2026-07-16T19:20:45.591936,14.83191379,.0007569,98.1173,120.7176,183.4463,176.6699,0,U,33499,999,94058,.77975E-4,.581E-5,0
EXPRESS-AM44,2009-007A,2026-07-16T20:06:49.307616,1.00271146,.0003618,3.5376,78.0282,31.7861,115.5262,0,U,33595,999,5258,0,-.102E-5,0
NSS-9,2009-008A,2026-07-16T19:19:25.741920,1.00272638,.0001919,1.3365,82.3627,22.2004,302.9877,0,U,33749,999,6381,0,.6E-6,0
TELSTAR 11N,2009-009A,2026-07-16T19:59:03.221952,1.00272689,.0002247,0.0291,277.9582,188.8676,90.0312,0,U,34111,999,4654,0,-.261E-5,0
NAVSTAR 63 (USA 203),2009-014A,2026-07-15T23:18:26.281728,2.00572321,.0144138,54.4809,209.5008,61.4099,299.3568,0,U,34661,999,12685,0,.44E-6,0
